SES-8                   
1 39460U 13071A   17345.51274467 -.00000276  00000-0  00000+0 0  9995
2 39460   0.0228 325.4789 0000512 293.9937 100.5217  1.00268741 14699
